{
  "type": "FeatureCollection",
  "features": [
    {
      "type": "Feature",
      "properties": {
        "norad_id": 33630,
        "name": "FENGYUN 1C DEB",
        "group": "fengyun-1c-debris",
        "lat": 49.37071408953584,
        "lon": -77.13454021101393,
        "alt_km": 780.0649324353199,
        "timestamp": "2025-12-12T11:38:31.698756+00:00",
        "meta_object_name": "FENGYUN 1C DEB",
        "meta_object_id": "1999-025DDP",
        "meta_epoch": "2025-12-09T13:35:56.277312",
        "meta_mean_motion": 14.17713216,
        "meta_eccentricity": 0.0135528,
        "meta_inclination": 98.6166,
        "meta_ra_of_asc_node": 89.8546,
        "meta_arg_of_pericenter": 77.2482,
        "meta_mean_anomaly": 284.3802,
        "meta_ephemeris_type": 0,
        "meta_classification_type": "U",
        "meta_norad_cat_id": 33630,
        "meta_element_set_no": 999,
        "meta_rev_at_epoch": 64366,
        "meta_bstar": 0.00061826,
        "meta_mean_motion_dot": 1.337e-05,
        "meta_mean_motion_ddot": 0,
        "tle_line1": "1 33630U 99025DDP 25343.56662358  .00001337  00000+0  61826-3 0  9997",
        "tle_line2": "2 33630  98.6166  89.8546 0135528  77.2482 284.3802 14.17713216643662"
      },
      "geometry": {
        "type": "Point",
        "coordinates": [
          -77.13454021101393,
          49.37071408953584
        ]
      }
    },
    {
      "type": "Feature",
      "properties": {
        "norad_id": 33633,
        "name": "FENGYUN 1C DEB",
        "group": "fengyun-1c-debris",
        "lat": 11.262436795234596,
        "lon": -97.4425082498528,
        "alt_km": 771.3547064710401,
        "timestamp": "2025-12-12T11:38:31.698766+00:00",
        "meta_object_name": "FENGYUN 1C DEB",
        "meta_object_id": "1999-025DDS",
        "meta_epoch": "2025-12-09T05:09:41.870880",
        "meta_mean_motion": 14.19278753,
        "meta_eccentricity": 0.0083508,
        "meta_inclination": 99.0481,
        "meta_ra_of_asc_node": 77.4006,
        "meta_arg_of_pericenter": 160.8678,
        "meta_mean_anomaly": 228.508,
        "meta_ephemeris_type": 0,
        "meta_classification_type": "U",
        "meta_norad_cat_id": 33633,
        "meta_element_set_no": 999,
        "meta_rev_at_epoch": 90661,
        "meta_bstar": 0.003396465,
        "meta_mean_motion_dot": 7.339e-05,
        "meta_mean_motion_ddot": 0,
        "tle_line1": "1 33633U 99025DDS 25343.21506795  .00007339  00000+0  33965-2 0  9994",
        "tle_line2": "2 33633  99.0481  77.4006 0083508 160.8678 228.5080 14.19278753906619"
      },
      "geometry": {
        "type": "Point",
        "coordinates": [
          -97.4425082498528,
          11.262436795234596
        ]
      }
    },
    {
      "type": "Feature",
      "properties": {
        "norad_id": 33637,
        "name": "FENGYUN 1C DEB",
        "group": "fengyun-1c-debris",
        "lat": 32.00981582699342,
        "lon": 26.108894154272413,
        "alt_km": 796.4207781063451,
        "timestamp": "2025-12-12T11:38:31.698776+00:00",
        "meta_object_name": "FENGYUN 1C DEB",
        "meta_object_id": "1999-025DDW",
        "meta_epoch": "2025-12-11T08:44:50.038656",
        "meta_mean_motion": 14.36733805,
        "meta_eccentricity": 0.00831045,
        "meta_inclination": 98.493,
        "meta_ra_of_asc_node": 30.363,
        "meta_arg_of_pericenter": 155.527,
        "meta_mean_anomaly": 204.9897,
        "meta_ephemeris_type": 0,
        "meta_classification_type": "U",
        "meta_norad_cat_id": 33637,
        "meta_element_set_no": 999,
        "meta_rev_at_epoch": 64818,
        "meta_bstar": 0.0022658521,
        "meta_mean_motion_dot": 6.913e-05,
        "meta_mean_motion_ddot": 0,
        "tle_line1": "1 33637U 99025DDW 25345.36446804  .00006913  00000+0  22659-2 0  9995",
        "tle_line2": "2 33637  98.4930  30.3630 0083104 155.5270 204.9897 14.36733805648189"
      },
      "geometry": {
        "type": "Point",
        "coordinates": [
          26.108894154272413,
          32.00981582699342
        ]
      }
    },
    {
      "type": "Feature",
      "properties": {
        "norad_id": 33638,
        "name": "FENGYUN 1C DEB",
        "group": "fengyun-1c-debris",
        "lat": -44.032532173817444,
        "lon": 48.93025994143435,
        "alt_km": 878.0239247236341,
        "timestamp": "2025-12-12T11:38:31.698786+00:00",
        "meta_object_name": "FENGYUN 1C DEB",
        "meta_object_id": "1999-025DDX",
        "meta_epoch": "2025-12-11T22:14:50.921664",
        "meta_mean_motion": 13.69308763,
        "meta_eccentricity": 0.0264805,
        "meta_inclination": 98.4644,
        "meta_ra_of_asc_node": 236.7162,
        "meta_arg_of_pericenter": 275.2453,
        "meta_mean_anomaly": 81.8534,
        "meta_ephemeris_type": 0,
        "meta_classification_type": "U",
        "meta_norad_cat_id": 33638,
        "meta_element_set_no": 999,
        "meta_rev_at_epoch": 60904,
        "meta_bstar": 0.0019789,
        "meta_mean_motion_dot": 2.159e-05,
        "meta_mean_motion_ddot": 0,
        "tle_line1": "1 33638U 99025DDX 25345.92697826  .00002159  00000+0  19789-2 0  9998",
        "tle_line2": "2 33638  98.4644 236.7162 0264805 275.2453  81.8534 13.69308763609044"
      },
      "geometry": {
        "type": "Point",
        "coordinates": [
          48.93025994143435,
          -44.032532173817444
        ]
      }
    },
    {
      "type": "Feature",
      "properties": {
        "norad_id": 33639,
        "name": "FENGYUN 1C DEB",
        "group": "fengyun-1c-debris",
        "lat": 73.89576608446298,
        "lon": -70.4550198399799,
        "alt_km": 784.7022144589446,
        "timestamp": "2025-12-12T11:38:31.698795+00:00",
        "meta_object_name": "FENGYUN 1C DEB",
        "meta_object_id": "1999-025DDY",
        "meta_epoch": "2025-12-03T23:45:48.189312",
        "meta_mean_motion": 14.40248408,
        "meta_eccentricity": 0.00493059,
        "meta_inclination": 98.7136,
        "meta_ra_of_asc_node": 68.813,
        "meta_arg_of_pericenter": 315.1865,
        "meta_mean_anomaly": 44.5345,
        "meta_ephemeris_type": 0,
        "meta_classification_type": "U",
        "meta_norad_cat_id": 33639,
        "meta_element_set_no": 999,
        "meta_rev_at_epoch": 60456,
        "meta_bstar": 0.0043899516,
        "meta_mean_motion_dot": 0.00014079,
        "meta_mean_motion_ddot": 0,
        "tle_line1": "1 33639U 99025DDY 25337.99014108  .00014079  00000+0  43900-2 0  9999",
        "tle_line2": "2 33639  98.7136  68.8130 0049305 315.1865  44.5345 14.40248408604567"
      },
      "geometry": {
        "type": "Point",
        "coordinates": [
          -70.4550198399799,
          73.89576608446298
        ]
      }
    },
    {
      "type": "Feature",
      "properties": {
        "norad_id": 33640,
        "name": "FENGYUN 1C DEB",
        "group": "fengyun-1c-debris",
        "lat": -71.4358117894863,
        "lon": -43.164362876007765,
        "alt_km": 783.9243625477502,
        "timestamp": "2025-12-12T11:38:31.698805+00:00",
        "meta_object_name": "FENGYUN 1C DEB",
        "meta_object_id": "1999-025DDZ",
        "meta_epoch": "2025-12-11T19:22:45.041664",
        "meta_mean_motion": 14.45889666,
        "meta_eccentricity": 0.00906976,
        "meta_inclination": 98.8406,
        "meta_ra_of_asc_node": 288.5217,
        "meta_arg_of_pericenter": 162.4466,
        "meta_mean_anomaly": 197.9894,
        "meta_ephemeris_type": 0,
        "meta_classification_type": "U",
        "meta_norad_cat_id": 33640,
        "meta_element_set_no": 999,
        "meta_rev_at_epoch": 92329,
        "meta_bstar": 0.00074722735,
        "meta_mean_motion_dot": 2.744e-05,
        "meta_mean_motion_ddot": 0,
        "tle_line1": "1 33640U 99025DDZ 25345.80746576  .00002744  00000+0  74723-3 0  9995",
        "tle_line2": "2 33640  98.8406 288.5217 0090697 162.4466 197.9894 14.45889666923295"
      },
      "geometry": {
        "type": "Point",
        "coordinates": [
          -43.164362876007765,
          -71.4358117894863
        ]
      }
    },
    {
      "type": "Feature",
      "properties": {
        "norad_id": 33648,
        "name": "FENGYUN 1C DEB",
        "group": "fengyun-1c-debris",
        "lat": -62.587646235888435,
        "lon": 147.9682605340801,
        "alt_km": 842.2962131966233,
        "timestamp": "2025-12-12T11:38:31.698815+00:00",
        "meta_object_name": "FENGYUN 1C DEB",
        "meta_object_id": "1999-025DEH",
        "meta_epoch": "2025-12-10T17:40:17.298048",
        "meta_mean_motion": 14.11774019,
        "meta_eccentricity": 0.00687865,
        "meta_inclination": 98.7194,
        "meta_ra_of_asc_node": 343.4805,
        "meta_arg_of_pericenter": 179.859,
        "meta_mean_anomaly": 180.2613,
        "meta_ephemeris_type": 0,
        "meta_classification_type": "U",
        "meta_norad_cat_id": 33648,
        "meta_element_set_no": 999,
        "meta_rev_at_epoch": 64348,
        "meta_bstar": 0.00017202181,
        "meta_mean_motion_dot": 2.78e-06,
        "meta_mean_motion_ddot": 0,
        "tle_line1": "1 33648U 99025DEH 25344.73631132  .00000278  00000+0  17202-3 0  9994",
        "tle_line2": "2 33648  98.7194 343.4805 0068786 179.8590 180.2613 14.11774019643486"
      },
      "geometry": {
        "type": "Point",
        "coordinates": [
          147.9682605340801,
          -62.587646235888435
        ]
      }
    }
  ]
}